{
	"creator": "Satellites plugin (update)",
	"hintColor": [0, 0.5, 0.5],
	"satellites": 
	{
		"AAU CUBESAT": 
		{
			"comms": [],
			"tle1": "1 27846U 03031G   10255.01054934  .00000040  00000-0  38421-4 0  8303",
			"tle2": "2 27846  98.7037 263.5751 0008645 262.3984  97.6220 14.21050942373512",
			"visible": false
		},
		"ARSENE (AO-24)": 
		{
			"comms": [],
			"tle1": "1 22654U 93031B   10254.10784553 -.00000148  00000-0  10000-3 0  4049",
			"tle2": "2 22654   4.6806 328.3424 2847939 187.7286 166.5782  1.42205600 85538",
			"visible": false
		},
		"CANX-1": 
		{
			"comms": [],
			"tle1": "1 27847U 03031H   10254.53269970  .00000030  00000-0  34039-4 0  8498",
			"tle2": "2 27847  98.7027 263.0866 0008488 262.3665  97.6517 14.21029295373397",
			"visible": false
		},
		"COSMOS 2123 & RS-12/13": 
		{
			"comms": [],
			"tle1": "1 21089U 91007A   10254.15546479  .00000028  00000-0  13276-4 0  5708",
			"tle2": "2 21089  82.9210 291.9544 0029569 150.1593 210.1257 13.74496038983141",
			"visible": false
		},
		"CUBESAT XI-IV (CO-57)": 
		{
			"comms": [
			{
				"description": "downlink",
				"frequency": 437.49,
				"modulation": "AFSK 1200 bps"
			}],
			"tle1": "1 27848U 03031J   10254.55067253  .00000059  00000-0  47681-4 0  8804",
			"tle2": "2 27848  98.7159 261.4026 0009138 291.5849  68.4348 14.20519626373305",
			"visible": true
		},
		"CUBESAT XI-V (CO-58)": 
		{
			"comms": [
			{
				"description": "downlink",
				"frequency": 437.345,
				"modulation": "AFSK 1200 bps"
			}],
			"tle1": "1 28895U 05043F   10254.68205653  .00000157  00000-0  42187-4 0  6784",
			"tle2": "2 28895  97.9997 136.2347 0018084  17.9461 342.2372 14.59930773259602",
			"visible": true
		},
		"CUTE-1 (CO-55)": 
		{
			"comms": [
			{
				"description": "downlink",
				"frequency": 437.4,
				"modulation": "AFSK 1200 bps"
			}],
			"tle1": "1 27844U 03031E   10254.50844199  .00000047  00000-0  42007-4 0  9330",
			"tle2": "2 27844  98.7115 262.2504 0009110 286.4389  73.5788 14.20728305373340",
			"visible": true
		},
		"DELFI-C3 (DO-64)": 
		{
			"comms": [
			{
				"description": "downlink",
				"frequency": 145.87,
				"modulation": "BPSK 1200 bps"
			}],
			"tle1": "1 32789U 08021G   10254.25208450  .00000507  00000-0  70019-4 0  7821",
			"tle2": "2 32789  97.8937 318.5143 0015700   9.2258 350.9221 14.82295064128259",
			"visible": true
		},
		"DOVE (DO-17)": 
		{
			"comms": [],
			"tle1": "1 20440U 90005E   10254.67397544  .00000014  00000-0  20645-4 0  7108",
			"tle2": "2 20440  98.3172 212.8168 0010020 263.6825  96.3211 14.32179709 77914",
			"visible": false
		},
		"DTUSAT": 
		{
			"comms": [],
			"tle1": "1 27842U 03031C   10254.23631129  .00000035  00000-0  36186-4 0  9243",
			"tle2": "2 27842  98.7035 262.8200 0008417 264.4933  95.5283 14.21052811373402",
			"visible": false
		},
		"ECHO (AO-51)": 
		{
			"comms": [
			{
				"description": "uplink",
				"frequency": 145.92,
				"modulation": "FM/Voice"
			}, 
			{
				"description": "downlink",
				"frequency": 435.15,
				"modulation": "FM/Voice"
			}],
			"tle1": "1 28375U 04025K   10254.54660274  .00000022  00000-0  19430-4 0  7715",
			"tle2": "2 28375  98.0691 243.1576 0082957 194.8937 164.9816 14.40697984325940",
			"visible": true
		},
		"ENVISAT": 
		{
			"comms": [],
			"hintColor": [0.400000005960464, 0.800000011920929, 1],
			"tle1": "1 27386U 02009A   10255.09984815 -.00000007  00000-0  13612-4 0  4253",
			"tle2": "2 27386  98.5443 320.9591 0001132  84.8507 275.2811 14.32250379446184",
			"visible": true,
			"draworb": true
		},
		"EYESAT-1 (AO-27)": 
		{
			"comms": [
			{
				"description": "uplink",
				"frequency": 145.85
			}, 
			{
				"description": "downlink",
				"frequency": 145.2
			}],
			"tle1": "1 22825U 93061C   10254.81834401 -.00000025  00000-0  68131-5 0  6235",
			"tle2": "2 22825  98.4926 200.5566 0008805  20.2409 339.9143 14.29306962884421",
			"visible": true
		},
		"GENESIS 1": 
		{
			"comms": [],
			"tle1": "1 29252U 06029A   10254.82238547  .00000371  00000-0  39821-4 0  1437",
			"tle2": "2 29252  64.5146 350.2380 0027746 334.6300  25.3451 15.03712670228817",
			"visible": true
		},
		"GENESIS 2": 
		{
			"comms": [],
			"tle1": "1 31789U 07028A   10254.80959827  .00000400  00000-0  42267-4 0  8892",
			"tle2": "2 31789  64.5085  21.9966 0021271 194.1457 165.9068 15.03390954176014",
			"visible": true
		},
		"GPS BIIA-10 (PRN 32)": 
		{
			"comms": [],
			"tle1": "1 20959U 90103A   10254.30549760 -.00000002  00000-0  10000-3 0  8428",
			"tle2": "2 20959  54.8829 264.8058 0128534 305.6936  53.1409  2.00566574144951",
			"visible": false
		},
		"GPS BIIA-11 (PRN 24)": 
		{
			"comms": [],
			"tle1": "1 21552U 91047A   10253.17559681  .00000013  00000-0  10000-3 0  8244",
			"tle2": "2 21552  54.3623 202.9015 0058106 334.9437  24.7515  2.00432419140512",
			"visible": false
		},
		"GPS BIIA-14 (PRN 26)": 
		{
			"comms": [],
			"tle1": "1 22014U 92039A   10253.60619709 -.00000075  00000-0  10000-3 0  7334",
			"tle2": "2 22014  56.7080 323.8462 0195956  63.6373 298.4230  2.00568156126671",
			"visible": false
		},
		"GPS BIIA-15 (PRN 27)": 
		{
			"comms": [],
			"tle1": "1 22108U 92058A   10254.20610694 -.00000084  00000-0  10000-3 0  6294",
			"tle2": "2 22108  56.1066  16.9583 0217735 280.9339  76.6325  2.00573775131864",
			"visible": false
		},
		"GPS BIIA-21 (PRN 09)": 
		{
			"comms": [],
			"tle1": "1 22700U 93042A   10253.73311567 -.00000082  00000-0  10000-3 0  9718",
			"tle2": "2 22700  56.2388  18.4222 0168947  88.7313 273.2020  2.00560512126016",
			"visible": false
		},
		"GPS BIIA-23 (PRN 04)": 
		{
			"comms": [],
			"tle1": "1 22877U 93068A   10253.87154884  .00000015  00000-0  10000-3 0  3172",
			"tle2": "2 22877  53.7906 199.9822 0091482  35.5629 325.0169  2.00554898123667",
			"visible": false
		},
		"GPS BIIA-24 (PRN 06)": 
		{
			"comms": [],
			"tle1": "1 23027U 94016A   10253.57500900  .00000014  00000-0  10000-3 0  2904",
			"tle2": "2 23027  53.5575 136.9564 0063836 302.9376  56.5329  2.00565214120969",
			"visible": false
		},
		"GPS BIIA-25 (PRN 03)": 
		{
			"comms": [],
			"tle1": "1 23833U 96019A   10253.59335991  .00000014  00000-0  10000-3 0  4791",
			"tle2": "2 23833  53.1500 132.8649 0134280  58.6625 302.7326  2.00571232105942",
			"visible": false
		},
		"GPS BIIA-26 (PRN 10)": 
		{
			"comms": [],
			"tle1": "1 23953U 96041A   10253.47012255  .00000000  00000-0  10000-3 0  9768",
			"tle2": "2 23953  54.5527 261.1836 0091623  37.1220 323.5232  2.00582361103736",
			"visible": false
		},
		"GPS BIIA-27 (PRN 30)": 
		{
			"comms": [],
			"tle1": "1 24320U 96056A   10254.36657647 -.00000015  00000-0  10000-3 0  6980",
			"tle2": "2 24320  54.8450  77.3686 0123667  86.7120 274.7498  2.00560592102413",
			"visible": false
		},
		"GPS BIIA-28 (PRN 08)": 
		{
			"comms": [],
			"tle1": "1 25030U 97067A   10253.59443970 -.00000075  00000-0  10000-3 0  3745",
			"tle2": "2 25030  56.9505  24.1920 0113239 180.5646 179.4261  2.00564622 94166",
			"visible": false
		},
		"GPS BIIR-02 (PRN 13)": 
		{
			"comms": [],
			"tle1": "1 24876U 97035A   10253.96004445 -.00000077  00000-0  10000-3 0  4505",
			"tle2": "2 24876  56.8415 324.0526 0041665 103.9602 256.5680  2.00559509 96274",
			"visible": false
		},
		"GPS BIIR-03 (PRN 11)": 
		{
			"comms": [],
			"tle1": "1 25933U 99055A   10254.23872220  .00000009  00000-0  10000-3 0  8945",
			"tle2": "2 25933  50.8932 186.1218 0109092  47.3776 313.5299  2.00552080 80094",
			"visible": false
		},
		"GPS BIIR-04 (PRN 20)": 
		{
			"comms": [],
			"tle1": "1 26360U 00025A   10254.32615052  .00000002  00000-0  10000-3 0  9895",
			"tle2": "2 26360  53.6297 257.9625 0039008  73.8394 286.5971  2.00578375 75794",
			"visible": false
		},
		"GPS BIIR-05 (PRN 28)": 
		{
			"comms": [],
			"tle1": "1 26407U 00040A   10253.67069661 -.00000003  00000-0  10000-3 0  9375",
			"tle2": "2 26407  55.6637  81.9856 0172168 241.4690 116.8392  2.00563063 74456",
			"visible": false
		},
		"GPS BIIR-06 (PRN 14)": 
		{
			"comms": [],
			"tle1": "1 26605U 00071A   10254.27581748 -.00000078  00000-0  10000-3 0  9485",
			"tle2": "2 26605  56.4537 322.7530 0057735 239.3424 120.1504  2.00576595 72064",
			"visible": false
		},
		"GPS BIIR-07 (PRN 18)": 
		{
			"comms": [],
			"tle1": "1 26690U 01004A   10254.13769258 -.00000001  00000-0  10000-3 0  8288",
			"tle2": "2 26690  53.6318 261.0604 0119858 229.0115 129.9547  2.00557750 70478",
			"visible": false
		},
		"GPS BIIR-08 (PRN 16)": 
		{
			"comms": [],
			"tle1": "1 27663U 03005A   10254.49470717 -.00000010  00000-0  10000-3 0  2307",
			"tle2": "2 27663  55.7610  81.5297 0068789 353.1517   6.7727  2.00566915 55839",
			"visible": false
		},
		"GPS BIIR-09 (PRN 21)": 
		{
			"comms": [],
			"tle1": "1 27704U 03010A   10253.06040533  .00000011  00000-0  10000-3 0  1174",
			"tle2": "2 27704  53.4176 200.5911 0170238 220.6355 138.0599  2.00566692 54594",
			"visible": false
		},
		"GPS BIIR-10 (PRN 22)": 
		{
			"comms": [],
			"tle1": "1 28129U 03058A   10254.18122058 -.00000002  00000-0  10000-3 0  7150",
			"tle2": "2 28129  53.5001 261.3238 0057753 249.8571 109.5315  2.00557944 49324",
			"visible": false
		},
		"GPS BIIR-11 (PRN 19)": 
		{
			"comms": [],
			"tle1": "1 28190U 04009A   10253.63822487  .00000015  00000-0  10000-3 0  6834",
			"tle2": "2 28190  54.8921 144.4649 0068654 354.2870   5.7077  2.00551231 47489",
			"visible": false
		},
		"GPS BIIR-12 (PRN 23)": 
		{
			"comms": [],
			"tle1": "1 28361U 04023A   10253.42293192 -.00000072  00000-0  10000-3 0  5026",
			"tle2": "2 28361  55.4039 320.4423 0069648 179.0480 181.0323  2.00566423 45564",
			"visible": false
		},
		"GPS BIIR-13 (PRN 02)": 
		{
			"comms": [],
			"tle1": "1 28474U 04045A   10253.91376076  .00000015  00000-0  10000-3 0  3824",
			"tle2": "2 28474  53.8389 198.9626 0096437 180.9004 179.0559  2.00568557 42937",
			"visible": false
		}
	},
	"shortName": "satellite orbital data"
}